store_id,name,address_line_1,address_line_2,city,state,postal_code,phone
410051,CI051,900 De La Paix Rue,,Cincinnati,OH, 45220,(513) 751-3324
410052,CI052,3161 Birch Dr,,Erlanger,KY, 41018,(859) 291-2687
410053,CI053,4241 President Dr,,Cincinnati,OH, 45225,(513) 541-2246
410054,CI054,582 Ivy Ridge Dr,,Newport,KY, 41076,(513) 528-6568
410055,CI055,909 Surfridge Dr,,Hebron,KY, 41048,(859) 817-9062
410056,CI056,5121 Ravenna St,,Cincinnati,OH, 45227,(513) 271-1525
410057,CI057,990 Emery Dr,,Covington,KY, 41011,(859) 360-6525
410058,CI058,1435 Baymeadows Dr,,Mason,OH, 45040,(513) 398-8827
410059,CI059,2017 Winding Creek Ln,,Mason,OH, 45040,(513) 398-0383
410060,CI060,6351 Marbury Ct,,Dayton,OH, 45424,(937) 235-5234
410061,CI061,904 Terrace Dr,,Covington,KY, 41011,(859) 581-3615
410062,CI062,4106 W Liberty St,,Cincinnati,OH, 45205,(513) 389-0099
410063,CI063,651 Grants Pass S,,South Lebanon,OH, 45065,(513) 494-1947
410064,CI064,2205 New Linden Rd,,Newport,KY, 41071,(513) 733-5886
410065,CI065,3726 Anioton Ct,,Cincinnati,OH, 45227,(513) 531-5758
410066,CI066,9014 Winthrop Dr,,Cincinnati,OH, 45249,(513) 469-2356
410067,CI067,993 Nohunta Ct,,Cincinnati,OH, 45231,(513) 386-8811
410068,CI068,3652 Woodford Rd,Ste 106,Cincinnati,OH, 45213,(513) 924-1433
410069,CI069,1069 Willow Ln,,Mason,OH, 45040,(513) 459-9834
410070,CI070,939 Main St,,Covington,KY, 41011,(859) 815-8242
410071,CI071,654 Emerald Dr S,,South Lebanon,OH, 45065,(513) 770-0009
410072,CI072,3827 Boudinot Ave,,Cincinnati,OH, 45211,(513) 661-1168
410073,CI073,818 Findlay St,,Cincinnati,OH, 45214,(513) 241-6126
410074,CI074,33 Highland Meadows Cir,Ste 8,Newport,KY, 41076,(513) 662-4501
410075,CI075,5353 Tompkins Ave,,Cincinnati,OH, 45227,(513) 271-5581
410077,CI077,42 Santa Clara Ave,,Dayton,OH, 45405,(937) 234-4401
410078,CI078,3408 Apple Tree Ln,,Erlanger,KY, 41018,(859) 282-6903
410079,CI079,355 Merravay Dr,,Florence,KY, 41042,(859) 360-5224
410080,CI080,909 Hawkshead Ln,,Erlanger,KY, 41018,(859) 282-0005
410081,CI081,908 Worth St,,Covington,KY, 41011,(859) 291-0024
410082,CI082,4005 Country Place Ct,,Hebron,KY, 41048,(859) 918-1794
410083,CI083,1144 Hayward Cir,,Oxford,OH, 45056,(513) 239-8007
410084,CI084,4154 Farmwood Ct,,Erlanger,KY, 41018,(859) 283-0849
410085,CI085,604 Linden Ave,,Newport,KY, 41071,(859) 261-2604
410086,CI086,9077 Fontainebleau Ter,,Cincinnati,OH, 45231,(513) 351-3926
410087,CI087,317 Riddle Rd,,Cincinnati,OH, 45215,(513) 771-1847
410088,CI088,3969 Glencross Ave,,Cincinnati,OH, 45217,(513) 429-4147
410089,CI089,805 Elm St,,Covington,KY, 41016,(859) 291-0568
410090,CI090,1376 Firethorn Dr,,Mason,OH, 45040,(513) 398-5430
410091,CI091,5410 Woodgate Dr,,Dayton,OH, 45424,(937) 233-7817
410092,CI092,1539 Raintree Ct,,Erlanger,KY, 41018,(859) 279-3031
410101,CI092,102 Sherwood Green Ct,Ste T,Mason,OH, 45040,(513) 398-2808
410093,CI093,1187 Anthony Ln,,Mason,OH, 45040,(513) 754-1432
410094,CI094,28 Lownes Ct,,Springboro,OH, 45066,(937) 350-5053
410095,CI095,41 Burney Ln,,Fort Thomas,KY, 41075,(937) 444-0987
410096,CI096,120 Main St,,Newport,KY, 41071,(859) 261-2806
410097,CI097,6009 Montrose Ave,,Florence,KY, 41042,(859) 360-3791
410098,CI098,917 Highland Pike,Ste 1,Covington,KY, 41011,(859) 415-9847
410099,CI099,4017 Cloud Park Dr,Ste A2,Dayton,OH, 45424,(937) 233-6544
410100,CI100,5422 College Corner Pike,Ste 211,Oxford,OH, 45056,(513) 255-9012
340001,AL001,20 Acre St,,Bennington,NH, 03442,(603) 588-3043
340002,AL002,94 Cole Ave,,Williamstown,MA, 01267,(413) 458-8171
340003,AL003,132 Wilkins Ave,,Albany,NY, 12205,(518) 438-8694
340004,AL004,1 Bleecker Ter,Ste 211,Albany,NY, 12206,(518) 482-1883
340005,AL005,8 Bonheim St,,Albany,NY, 12204,(518) 432-1352
340006,AL006,24 Adam St,,Pittsfield,MA, 01201,(413) 997-2648
340007,AL007,8 Shepard Ave,,Albany,NY, 12203,(518) 464-6456
340008,AL008,142 Franklin St,,Adams,MA, 01220,(413) 663-3392
340009,AL009,11 Brierwood Ln,,Pittsfield,MA, 01201,(413) 344-4983
340010,AL010,11 Amsterdam Ave,,Albany,NY, 12204,(518) 434-3500
340011,AL011,261 2nd St,,Pittsfield,MA, 01201,(413) 499-3452
340012,AL012,4 Wellington Way,,Schenectady,NY, 12309,(518) 280-8097
340013,AL013,24 Kearney Ave,,Pittsfield,MA, 01201,(413) 442-7386
340014,AL014,26 Hamlin St,,Pittsfield,MA, 01201,(413) 499-1843
340015,AL015,74 1st St,,Hoosick Falls,NY, 12090,(518) 205-5122
340016,AL016,1556 Santa Fe St,,Schenectady,NY, 12303,(518) 280-4684
340017,AL017,2150 Rosa Rd,Ste C,Schenectady,NY, 12309,(518) 280-4547
340018,AL018,1078 Webster St,,Schenectady,NY, 12303,(518) 280-4342
340019,AL019,54 Merrill Dr,,Bennington,NH, 03442,(603) 588-2798
340020,AL020,79 Sherman St,,Albany,NY, 12206,(518) 433-0552
340021,AL021,189 Us Hwy #202,,Bennington,NH, 03442,(603) 588-2635
340022,AL022,36 Pershing Dr,,Schenectady,NY, 12302,(518) 346-2878
340023,AL023,99 S Pearl St,Ste 11,Albany,NY, 12207,(518) 434-8568
340024,AL024,807 1st Ave,,Troy,NY, 12182,(518) 233-0852
340025,AL025,11 Colatosti Pl,,Albany,NY, 12208,(518) 446-0350
340026,AL026,1425 West St,,Pittsfield,MA, 01201,(413) 443-3450
340027,AL027,3 Geers Hollow Ln,,Hoosick Falls,NY, 12090,(518) 205-5035
340028,AL028,101 S Pearl St,,Albany,NY, 12207,(518) 426-5304
340029,AL029,10 Onset Rd,Ste 3,Bennington,NH, 03442,(603) 588-3576
340030,AL030,73 Furnace St,Ste 2,North Adams,MA, 01247,(413) 398-5115
340031,AL031,1 Marietta St,,North Adams,MA, 01247,(413) 346-4985
340032,AL032,79 Excelsior Ave,,Troy,NY, 12180,(518) 271-7286
340033,AL033,8 Knightland Rd,,Bennington,NH, 03442,(603) 588-2084
340034,AL034,826 7th Ave,,Troy,NY, 12182,(518) 235-7341
340035,AL035,150 1st St,,Pittsfield,MA, 01201,(413) 464-7386
340036,AL036,114 Onota St,Ste 10,Pittsfield,MA, 01201,(413) 344-4341
340037,AL037,571 Petersburg Rd,,Williamstown,MA, 01267,(413) 458-2211
340038,AL038,194 Onota St,,Pittsfield,MA, 01201,(413) 344-4348
340039,AL039,15 High St,,Pittsfield,MA, 01201,(413) 442-5359
340040,AL040,10 Barclay St,Ste 2,Albany,NY, 12209,(518) 487-4379
340041,AL041,21 Dawes Ave,Ste 4,Pittsfield,MA, 01201,(413) 443-4361
340042,AL042,66 Henderson Rd,,North Adams,MA, 01247,(413) 346-4576
340043,AL043,133 Sand Creek Rd,,Albany,NY, 12205,(518) 438-0242
340044,AL044,127 Delaware Ave,,Albany,NY, 12202,(518) 915-1613
340045,AL045,720 Albany St,,Schenectady,NY, 12307,(518) 346-4672
340046,AL046,32 Blackinton St,,North Adams,MA, 01247,(413) 346-4386
340047,AL047,80 State 40 Rte,,Troy,NY, 12182,(212) 210-9139
340048,AL048,26 Acorn St,,Pittsfield,MA, 01201,(413) 395-9616
340049,AL049,94 Broad St,,Albany,NY, 12202,(518) 465-0472
340050,AL050,1 Van Buren Ave,,Albany,NY, 12205,(518) 453-9655
